BEIDOU 3 (C01)          
1 36287U 10001A   22166.81132988 -.00000281  00000+0  00000+0 0  9995
2 36287   1.8789  47.6701 0004438  23.2486 265.6466  1.00268526 45497
BEIDOU 5 (C06)          
1 36828U 10036A   22166.70267868 -.00000050  00000+0  00000+0 0  9992
2 36828  54.1934 176.2453 0027913 192.4394 252.3401  1.00246770 43569
BEIDOU 6 (C04)          
1 37210U 10057A   22166.81525471 -.00000111  00000+0  00000+0 0  9998
2 37210   0.8489  47.6383 0003177 125.5052 184.4520  1.00271352 42611
BEIDOU 7 (C07)          
1 37256U 10068A   22166.78114700 -.00000208  00000+0  00000+0 0  9992
2 37256  50.2177 289.6686 0021525 184.7967 175.9991  1.00250452 42139
BEIDOU 8 (C08)          
1 37384U 11013A   22166.94798373 -.00000199  00000+0  00000+0 0  9996
2 37384  60.2877  54.2751 0017948 185.0515 112.2837  1.00256817 41004
BEIDOU 9 (C09)          
1 37763U 11038A   22166.64946787 -.00000016  00000+0  00000+0 0  9993
2 37763  54.4758 178.7361 0098213 228.0934 186.2655  1.00279802 39986
BEIDOU 10 (C10)         
1 37948U 11073A   22166.83702431 -.00000160  00000+0  00000+0 0  9994
2 37948  50.3312 289.3066 0083576 217.9884 151.1723  1.00293978 38740
BEIDOU 11 (C05)         
1 38091U 12008A   22166.93857543  .00000057  00000+0  00000+0 0  9993
2 38091   1.5617  67.6544 0014718 339.1836 253.8843  1.00271423 37811
BEIDOU 12 (C11)         
1 38250U 12018A   22166.31424944 -.00000080  00000+0  00000+0 0  9995
2 38250  56.6990 353.6304 0019994 253.3280 323.0696  1.86234428 69040
BEIDOU 13 (C12)         
1 38251U 12018B   22166.74146625 -.00000082  00000+0  00000+0 0  9992
2 38251  56.6129 352.9404 0010901 255.7282 291.3221  1.86234321 69059
BEIDOU 15 (C14)         
1 38775U 12050B   22166.54367964 -.00000001  00000+0  00000+0 0  9999
2 38775  55.3996 111.7485 0015369 322.4414 288.2746  1.86231404 66424
BEIDOU 16 (C02)         
1 38953U 12059A   22166.85188521 -.00000176  00000+0  00000+0 0  9993
2 38953   1.9857  84.3802 0011869 303.7198 266.7176  1.00272882 35240
BEIDOU 17 (C31)         
1 40549U 15019A   22166.87358141 -.00000179  00000+0  00000+0 0  9998
2 40549  51.8920 312.7725 0036453 192.9667 164.7114  1.00297273 26415
BEIDOU 18 (C57)         
1 40748U 15037A   22166.60161809 -.00000083  00000+0  00000+0 0  9997
2 40748  55.8641 351.8136 0005046  42.7678 319.9366  1.86233409 46889
BEIDOU 19 (C58)         
1 40749U 15037B   22166.72095648 -.00000083  00000+0  00000+0 0  9998
2 40749  55.8691 351.7983 0004191 359.8354 217.4116  1.86232253 46877
BEIDOU 20 (C18)         
1 40938U 15053A   22166.46038970 -.00000137  00000+0  00000+0 0  9992
2 40938  51.5032 275.8978 0044623 196.5830  50.8031  1.00292487 24689
BEIDOU IGSO-6 (C13)     
1 41434U 16021A   22166.94782457 -.00000178  00000+0  00000+0 0  9994
2 41434  58.0962  52.8534 0043519 217.9089  70.4043  1.00283619 22814
BEIDOU-2 G7 (C03)       
1 41586U 16037A   22166.80539906 -.00000354  00000+0  00000+0 0  9999
2 41586   1.9771  69.8907 0008757   6.7976 227.8605  1.00270198 22127
BEIDOU-3 M1 (C19)       
1 43001U 17069A   22166.72278134 -.00000001  00000+0  00000+0 0  9992
2 43001  55.5528 111.7434 0011991 294.6910 232.3696  1.86231816 31363
BEIDOU-3 M2 (C20)       
1 43002U 17069B   22166.81096663  .00000000  00000+0  00000+0 0  9996
2 43002  55.5538 111.7758 0010273 313.2930 315.9248  1.86231428 31355
BEIDOU-3 M3 (C27)       
1 43107U 18003A   22166.68775538 -.00000085  00000+0  00000+0 0  9995
2 43107  55.3168 352.7274 0005837  59.7708 292.9639  1.86232620 30119
BEIDOU-3 M4 (C28)       
1 43108U 18003B   22166.38842897 -.00000083  00000+0  00000+0 0  9994
2 43108  55.3097 352.7266 0001567 250.9419 305.0129  1.86231070 30110
BEIDOU-3 M5 (C21)       
1 43207U 18018A   22166.00428812 -.00000002  00000+0  00000+0 0  9997
2 43207  55.5135 111.8815 0007513 331.3185  28.5949  1.86231744 29494
BEIDOU-3 M6 (C22)       
1 43208U 18018B   22166.07092806 -.00000002  00000+0  00000+0 0  9995
2 43208  55.5108 111.8842 0009902 305.4491  54.4137  1.86231672 29498
BEIDOU-3 M7 (C29)       
1 43245U 18029A   22166.82216203 -.00000085  00000+0  00000+0 0  9991
2 43245  55.2298 350.4916 0001356  66.7734 286.4926  1.86232740 28658
BEIDOU-3 M8 (C30)       
1 43246U 18029B   22166.21386640 -.00000082  00000+0  10000-3 0  9990
2 43246  55.2264 350.5421 0004530  15.0068 336.9525  1.86232953 28638
BEIDOU IGSO-7 (C16)     
1 43539U 18057A   22166.70280462 -.00000063  00000+0  00000+0 0  9999
2 43539  55.0762 175.7189 0049413 227.6040 223.9419  1.00258866 14495
BEIDOU-3 M9 (C23)       
1 43581U 18062A   22166.92409273  .00000045  00000+0  00000+0 0  9998
2 43581  54.2745 232.1361 0004480 267.4917  51.6587  1.86231997 26398
BEIDOU-3 M10 (C24)      
1 43582U 18062B   22166.79205801  .00000047  00000+0  00000+0 0  9997
2 43582  54.2749 232.1310 0004127 352.0747 330.3214  1.86232238 26390
BEIDOU-3 M11 (C25)      
1 43602U 18067A   22166.30591096  .00000055  00000+0  00000+0 0  9995
2 43602  54.3574 230.7618 0006554   4.1801  33.7042  1.86231798 25883
BEIDOU-3 M12 (C26)      
1 43603U 18067B   22166.85593212  .00000048  00000+0  00000+0 0  9990
2 43603  54.3541 230.7102 0003836 348.5094 328.5151  1.86231749 25900
BEIDOU-3 M13 (C32)      
1 43622U 18072A   22166.74013490 -.00000001  00000+0  00000+0 0  9990
2 43622  55.4791 111.4118 0008503 292.7400 335.9275  1.86231864 25412
BEIDOU-3 M14 (C33)      
1 43623U 18072B   22166.85341902 -.00000001  00000+0  00000+0 0  9995
2 43623  55.4810 111.3997 0006582 311.8880 122.9669  1.86231847 25422
BEIDOU-3 M15 (C34)      
1 43647U 18078A   22166.64771811 -.00000084  00000+0  10000-3 0  9996
2 43647  55.1252 350.6581 0006754  15.3199 177.1698  1.86232891 24920
BEIDOU-3 M16 (C35)      
1 43648U 18078B   22166.79301976 -.00000085  00000+0  00000+0 0  9990
2 43648  55.1221 350.6582 0005118  29.1500 168.5545  1.86232375 24944
BEIDOU-3 G1 (C59)       
1 43683U 18085A   22166.81132990 -.00000277  00000+0  00000+0 0  9991
2 43683   0.8875 166.1056 0003618 333.3902 196.7284  1.00270897 13397
BEIDOU-3 M17 (C36)      
1 43706U 18093A   22166.64958048  .00000049  00000+0  00000+0 0  9993
2 43706  54.3572 232.0320 0010365 271.0867  88.8870  1.86231774 24303
BEIDOU-3 M18 (C37)      
1 43707U 18093B   22166.45527744  .00000052  00000+0  00000+0 0  9992
2 43707  54.3583 232.0294 0008071 296.4095  24.5095  1.86232279 24285
BEIDOU-3 IGSO-1 (C38)   
1 44204U 19023A   22166.59137588 -.00000236  00000+0  00000+0 0  9992
2 44204  56.5566  52.9898 0018989 199.3038 341.9632  1.00258628 11695
BEIDOU-2 G8             
1 44231U 19027A   22166.98543473 -.00000248  00000+0  00000+0 0  9996
2 44231   0.8557  76.1029 0004700 108.2255 219.1461  1.00272838 11412
BEIDOU-3 IGSO-2 (C39)   
1 44337U 19035A   22166.84825249 -.00000075  00000+0  00000+0 0  9999
2 44337  55.1185 171.7360 0023365 199.2505 315.2197  1.00253177 11032
BEIDOU-3 M23 (C45)      
1 44542U 19061A   22166.58545852  .00000050  00000+0  00000+0 0  9998
2 44542  54.5836 232.1757 0007785 327.7518  32.2931  1.86231215 18557
BEIDOU-3 M24 (C46)      
1 44543U 19061B   22166.69979737  .00000049  00000+0  00000+0 0  9992
2 44543  54.5817 232.1407 0005098 315.0379  32.9761  1.86231745 18544
BEIDOU-3 IGSO-3         
1 44709U 19073A   22166.95989873 -.00000207  00000+0  00000+0 0  9997
2 44709  57.2677 296.3985 0022708 174.3673 256.4984  1.00257012  9793
BEIDOU-3 M21            
1 44793U 19078A   22166.54063531 -.00000084  00000+0  10000-3 0  9992
2 44793  54.9738 350.6821 0006973  20.9137  53.6742  1.86232350 17417
BEIDOU-3 M22            
1 44794U 19078B   22166.57895081 -.00000084  00000+0  00000+0 0  9994
2 44794  54.9476 350.6715 0004903  21.5429 350.3971  1.86232839 17414
BEIDOU-3 M19            
1 44864U 19090A   22166.67324034 -.00000001  00000+0  00000+0 0  9991
2 44864  55.4134 111.6255 0018406 274.0031 355.6128  1.86231977 16996
BEIDOU-3 M20            
1 44865U 19090B   22166.54211877 -.00000002  00000+0  00000+0 0  9999
2 44865  55.4156 111.6611 0016810 287.1089 344.4654  1.86231956 16966
BEIDOU-3 G2             
1 45344U 20017A   22166.87105208 -.00000140  00000+0  00000+0 0  9992
2 45344   2.0672 351.9891 0005152 112.5259 193.2425  1.00270499  8593
BEIDOU-3 G3             
1 45807U 20040A   22166.80539906 -.00000352  00000+0  00000+0 0  9996
2 45807   1.4449 303.2158 0005877 332.0078  29.3430  1.00273918  7403
